OBJECT_NAME,OBJECT_ID,EPOCH,MEAN_MOTION,ECCENTRICITY,INCLINATION,RA_OF_ASC_NODE,ARG_OF_PERICENTER,MEAN_ANOMALY,EPHEMERIS_TYPE,CLASSIFICATION_TYPE,NORAD_CAT_ID,ELEMENT_SET_NO,REV_AT_EPOCH,BSTAR,MEAN_MOTION_DOT,MEAN_MOTION_DDOT
ONEWEB-0158,2021-025N,2026-06-17T21:21:44.023104,13.13471271,.00015883,87.8964,320.0769,96.0180,264.1130,0,U,48054,999,25372,.12841806E-3,.6E-6,0
ONEWEB-0157,2021-025P,2026-06-17T20:08:36.523104,13.13470366,.00021058,87.8959,320.0928,106.1379,253.9982,0,U,48055,999,25365,-.7706065E-3,-.269E-5,0
ONEWEB-0162,2021-025Q,2026-06-17T12:15:29.632896,13.13469311,.00019605,87.8960,320.1589,94.1493,265.9860,0,U,48056,999,25358,-.31553381E-3,-.102E-5,0
ONEWEB-0155,2021-025R,2026-06-17T19:44:13.076448,13.13469559,.00018194,87.8959,320.0928,102.3693,257.7640,0,U,48057,999,25376,-.65149811E-3,-.225E-5,0
ONEWEB-0149,2021-025S,2026-06-17T20:15:55.063584,13.13470542,.00020328,87.8962,320.0923,93.6143,266.5218,0,U,48058,999,25357,-.54059358E-3,-.185E-5,0
ONEWEB-0148,2021-025T,2026-06-17T21:11:58.921440,13.13469966,.00024039,87.8955,320.0914,92.2884,267.8520,0,U,48059,999,25370,.53226572E-3,.207E-5,0
ONEWEB-0160,2021-025U,2026-06-17T19:46:39.007776,13.13469782,.00013767,87.8956,320.0991,75.6351,284.4931,0,U,48060,999,25364,-.88546811E-3,-.311E-5,0
ONEWEB-0163,2021-025V,2026-06-17T21:14:24.337824,13.13470714,.00019906,87.8962,320.0816,103.9842,256.1508,0,U,48061,999,25377,.37130942E-3,.148E-5,0
ONEWEB-0159,2021-025W,2026-06-17T21:02:13.399872,13.13471535,.00019374,87.8965,320.0769,103.9825,256.1520,0,U,48062,999,25369,.11417109E-2,.43E-5,0
ONEWEB-0164,2021-025X,2026-06-17T18:45:43.030656,13.13469704,.00017803,87.8965,320.1022,96.1699,263.9633,0,U,48063,999,25366,.17151975E-3,.75E-6,0
ONEWEB-0167,2021-025Y,2026-06-17T21:15:37.364832,13.13468433,.00017572,87.8954,320.0911,118.2601,241.8705,0,U,48064,999,25366,.37913171E-3,.151E-5,0
ONEWEB-0166,2021-025Z,2026-06-17T09:00:39.341376,13.13466637,.00020861,87.8965,320.1641,96.0109,264.1258,0,U,48065,999,25367,-.21223865E-2,-.762E-5,0
ONEWEB-0151,2021-025AA,2026-06-17T20:01:16.271904,13.13470510,.00017592,87.8956,320.0895,100.4986,259.6341,0,U,48066,999,25367,-.92071152E-3,-.323E-5,0
ONEWEB-0170,2021-025AB,2026-06-17T20:13:27.987456,13.13470600,.00013772,87.8958,320.0899,97.3206,262.8080,0,U,48067,999,25363,-.54329781E-3,-.186E-5,0
ONEWEB-0168,2021-025AC,2026-06-17T19:51:31.582368,13.13469941,.00019858,87.8964,320.0927,100.7244,259.4109,0,U,48068,999,25364,-.7742651E-3,-.27E-5,0
ONEWEB-0173,2021-025AD,2026-06-17T19:39:20.525184,13.13469741,.00019657,87.8958,320.0960,108.0441,252.0903,0,U,48069,999,25388,-.38644619E-3,-.128E-5,0
ONEWEB-0171,2021-025AE,2026-06-17T20:32:58.472448,13.13470764,.0001765,87.8955,320.0970,98.7320,261.4009,0,U,48070,999,25370,.16518712E-3,.73E-6,0
ONEWEB-0172,2021-025AF,2026-06-17T20:03:42.261120,13.13470234,.00017962,87.8961,320.0910,102.7820,257.3510,0,U,48071,999,25459,-.12624659E-2,-.448E-5,0
ONEWEB-0174,2021-025AG,2026-06-17T19:36:54.793440,13.13469992,.00019929,87.8959,320.0936,96.4446,263.6910,0,U,48072,999,25391,-.28417886E-3,-.91E-6,0
ONEWEB-0175,2021-025AH,2026-06-17T20:20:47.168160,13.13471118,.00015501,87.8965,320.0721,103.7550,256.3751,0,U,48073,999,25357,-.28171123E-3,-.9E-6,0
ONEWEB-0177,2021-025AJ,2026-06-17T20:37:50.664288,13.13471313,.00020577,87.8960,320.0883,100.2074,259.9287,0,U,48074,999,25376,.55931678E-3,.217E-5,0
ONEWEB-0178,2021-025AK,2026-06-17T21:04:51.422880,13.13468670,.00017407,87.8948,320.0970,105.1735,254.9586,0,U,48075,999,25381,.70000897E-3,.268E-5,0
ONEWEB-0108,2021-025AL,2026-06-17T20:06:09.235296,13.13470799,.00018939,87.8964,320.0841,90.2378,269.8969,0,U,48076,999,25373,-.79868576E-3,-.279E-5,0
ONEWEB-0169,2021-025AM,2026-06-17T20:52:28.629984,13.13470887,.00019552,87.8956,320.0855,96.2461,263.8891,0,U,48077,999,25239,.10857857E-2,.409E-5,0
ONEWEB-0176,2021-031A,2026-06-17T18:54:37.669536,13.14503108,.00018935,87.8964,289.5794,104.0179,256.1162,0,U,48210,999,24839,.58731266E-3,.231E-5,0
ONEWEB-0184,2021-031B,2026-06-17T20:05:24.508608,13.14502953,.00015958,87.8974,289.5703,126.6903,233.4373,0,U,48211,999,24837,-.25316767E-3,-.81E-6,0
ONEWEB-0179,2021-031C,2026-06-17T20:48:35.275680,14.25523382,.02187171,87.8991,286.8086,254.9636,102.7261,0,U,48212,999,24914,.4774492E-4,.162E-5,0
ONEWEB-0180,2021-031D,2026-06-17T20:09:58.824288,13.14503530,.00022306,87.8972,289.5659,110.8972,249.2397,0,U,48213,999,24830,-.38414281E-3,-.13E-5,0
ONEWEB-0218,2021-031E,2026-06-17T20:41:57.314688,13.14502940,.00019065,87.8974,289.5602,130.3765,229.7531,0,U,48214,999,24846,.47391975E-3,.188E-5,0
ONEWEB-0209,2021-031F,2026-06-17T20:25:57.304416,13.14502146,.00021272,87.8966,289.5797,104.8014,255.3352,0,U,48215,999,24846,.21076043E-3,.91E-6,0
