[
  {
    "name": "ONEWEB-0158",
    "noradId": "48054",
    "line1": "1 48054U 21025N   26168.89009286  .00000060  00000+0  12842-3 0  9991",
    "line2": "2 48054  87.8964 320.0769 0001588  96.0180 264.1130 13.13471271253724"
  },
  {
    "name": "ONEWEB-0157",
    "noradId": "48055",
    "line1": "1 48055U 21025P   26168.83931161 -.00000269  00000+0 -77061-3 0  9999",
    "line2": "2 48055  87.8959 320.0928 0002105 106.1379 253.9982 13.13470366253652"
  },
  {
    "name": "ONEWEB-0162",
    "noradId": "48056",
    "line1": "1 48056U 21025Q   26168.51075964 -.00000102  00000+0 -31553-3 0  9997",
    "line2": "2 48056  87.8960 320.1589 0001960  94.1493 265.9860 13.13469311253588"
  },
  {
    "name": "ONEWEB-0155",
    "noradId": "48057",
    "line1": "1 48057U 21025R   26168.82237357 -.00000225  00000+0 -65150-3 0  9994",
    "line2": "2 48057  87.8959 320.0928 0001819 102.3693 257.7640 13.13469559253769"
  },
  {
    "name": "ONEWEB-0149",
    "noradId": "48058",
    "line1": "1 48058U 21025S   26168.84438731 -.00000185  00000+0 -54059-3 0  9997",
    "line2": "2 48058  87.8962 320.0923 0002032  93.6143 266.5218 13.13470542253571"
  },
  {
    "name": "ONEWEB-0148",
    "noradId": "48059",
    "line1": "1 48059U 21025T   26168.88332085  .00000207  00000+0  53227-3 0  9996",
    "line2": "2 48059  87.8955 320.0914 0002403  92.2884 267.8520 13.13469966253706"
  },
  {
    "name": "ONEWEB-0160",
    "noradId": "48060",
    "line1": "1 48060U 21025U   26168.82406259 -.00000311  00000+0 -88547-3 0  9998",
    "line2": "2 48060  87.8956 320.0991 0001376  75.6351 284.4931 13.13469782253646"
  },
  {
    "name": "ONEWEB-0163",
    "noradId": "48061",
    "line1": "1 48061U 21025V   26168.88500391  .00000148  00000+0  37131-3 0  9996",
    "line2": "2 48061  87.8962 320.0816 0001990 103.9842 256.1508 13.13470714253779"
  },
  {
    "name": "ONEWEB-0159",
    "noradId": "48062",
    "line1": "1 48062U 21025W   26168.87654398  .00000430  00000+0  11417-2 0  9995",
    "line2": "2 48062  87.8965 320.0769 0001937 103.9825 256.1520 13.13471535253699"
  },
  {
    "name": "ONEWEB-0164",
    "noradId": "48063",
    "line1": "1 48063U 21025X   26168.78174804  .00000075  00000+0  17152-3 0  9993",
    "line2": "2 48063  87.8965 320.1022 0001780  96.1699 263.9633 13.13469704253664"
  },
  {
    "name": "ONEWEB-0167",
    "noradId": "48064",
    "line1": "1 48064U 21025Y   26168.88584913  .00000151  00000+0  37913-3 0  9993",
    "line2": "2 48064  87.8954 320.0911 0001757 118.2601 241.8705 13.13468433253665"
  },
  {
    "name": "ONEWEB-0166",
    "noradId": "48065",
    "line1": "1 48065U 21025Z   26168.37545534 -.00000762  00000+0 -21224-2 0  9991",
    "line2": "2 48065  87.8965 320.1641 0002086  96.0109 264.1258 13.13466637253677"
  },
  {
    "name": "ONEWEB-0151",
    "noradId": "48066",
    "line1": "1 48066U 21025AA  26168.83421611 -.00000323  00000+0 -92071-3 0  9994",
    "line2": "2 48066  87.8956 320.0895 0001759 100.4986 259.6341 13.13470510253674"
  },
  {
    "name": "ONEWEB-0170",
    "noradId": "48067",
    "line1": "1 48067U 21025AB  26168.84268504 -.00000186  00000+0 -54330-3 0  9999",
    "line2": "2 48067  87.8958 320.0899 0001377  97.3206 262.8080 13.13470600253638"
  },
  {
    "name": "ONEWEB-0168",
    "noradId": "48068",
    "line1": "1 48068U 21025AC  26168.82744887 -.00000270  00000+0 -77427-3 0  9997",
    "line2": "2 48068  87.8964 320.0927 0001985 100.7244 259.4109 13.13469941253645"
  },
  {
    "name": "ONEWEB-0173",
    "noradId": "48069",
    "line1": "1 48069U 21025AD  26168.81898756 -.00000128  00000+0 -38645-3 0  9993",
    "line2": "2 48069  87.8958 320.0960 0001965 108.0441 252.0903 13.13469741253889"
  },
  {
    "name": "ONEWEB-0171",
    "noradId": "48070",
    "line1": "1 48070U 21025AE  26168.85623232  .00000073  00000+0  16519-3 0  9997",
    "line2": "2 48070  87.8955 320.0970 0001765  98.7320 261.4009 13.13470764253707"
  },
  {
    "name": "ONEWEB-0172",
    "noradId": "48071",
    "line1": "1 48071U 21025AF  26168.83590580 -.00000448  00000+0 -12625-2 0  9996",
    "line2": "2 48071  87.8961 320.0910 0001796 102.7820 257.3510 13.13470234254595"
  },
  {
    "name": "ONEWEB-0174",
    "noradId": "48072",
    "line1": "1 48072U 21025AG  26168.81730085 -.00000091  00000+0 -28418-3 0  9993",
    "line2": "2 48072  87.8959 320.0936 0001992  96.4446 263.6910 13.13469992253910"
  },
  {
    "name": "ONEWEB-0175",
    "noradId": "48073",
    "line1": "1 48073U 21025AH  26168.84776815 -.00000090  00000+0 -28171-3 0  9993",
    "line2": "2 48073  87.8965 320.0721 0001550 103.7550 256.3751 13.13471118253575"
  },
  {
    "name": "ONEWEB-0177",
    "noradId": "48074",
    "line1": "1 48074U 21025AJ  26168.85961417  .00000217  00000+0  55932-3 0  9993",
    "line2": "2 48074  87.8960 320.0883 0002057 100.2074 259.9287 13.13471313253767"
  },
  {
    "name": "ONEWEB-0178",
    "noradId": "48075",
    "line1": "1 48075U 21025AK  26168.87837295  .00000268  00000+0  70001-3 0  9992",
    "line2": "2 48075  87.8948 320.0970 0001740 105.1735 254.9586 13.13468670253812"
  },
  {
    "name": "ONEWEB-0108",
    "noradId": "48076",
    "line1": "1 48076U 21025AL  26168.83760689 -.00000279  00000+0 -79869-3 0  9996",
    "line2": "2 48076  87.8964 320.0841 0001893  90.2378 269.8969 13.13470799253730"
  },
  {
    "name": "ONEWEB-0169",
    "noradId": "48077",
    "line1": "1 48077U 21025AM  26168.86977581  .00000409  00000+0  10858-2 0  9996",
    "line2": "2 48077  87.8956 320.0855 0001955  96.2461 263.8891 13.13470887252392"
  },
  {
    "name": "ONEWEB-0176",
    "noradId": "48210",
    "line1": "1 48210U 21031A   26168.78793599  .00000231  00000+0  58731-3 0  9994",
    "line2": "2 48210  87.8964 289.5794 0001893 104.0179 256.1162 13.14503108248391"
  },
  {
    "name": "ONEWEB-0184",
    "noradId": "48211",
    "line1": "1 48211U 21031B   26168.83708922 -.00000081  00000+0 -25317-3 0  9996",
    "line2": "2 48211  87.8974 289.5703 0001595 126.6903 233.4373 13.14502953248374"
  },
  {
    "name": "ONEWEB-0179",
    "noradId": "48212",
    "line1": "1 48212U 21031C   26168.86707495  .00000162  00000+0  47745-4 0  9992",
    "line2": "2 48212  87.8991 286.8086 0218717 254.9636 102.7261 14.25523382249144"
  },
  {
    "name": "ONEWEB-0180",
    "noradId": "48213",
    "line1": "1 48213U 21031D   26168.84026417 -.00000130  00000+0 -38414-3 0  9998",
    "line2": "2 48213  87.8972 289.5659 0002230 110.8972 249.2397 13.14503530248308"
  },
  {
    "name": "ONEWEB-0218",
    "noradId": "48214",
    "line1": "1 48214U 21031E   26168.86246892  .00000188  00000+0  47392-3 0  9998",
    "line2": "2 48214  87.8974 289.5602 0001906 130.3765 229.7531 13.14502940248469"
  },
  {
    "name": "ONEWEB-0209",
    "noradId": "48215",
    "line1": "1 48215U 21031F   26168.85135769  .00000091  00000+0  21076-3 0  9992",
    "line2": "2 48215  87.8966 289.5797 0002127 104.8014 255.3352 13.14502146248469"
  }
]